STARLINK-3578           
1 51868U 22022S   25144.43235057  .00002461  00000+0  17268-3 0  9990
2 51868  53.2175 227.6470 0000947  92.3580 267.7521 15.08832251179448
STARLINK-3588           
1 51869U 22022T   25144.61265524  .00000599  00000+0  55718-4 0  9996
2 51869  53.2174 226.8343 0001141  86.4719 273.6403 15.08838449179476
STARLINK-3591           
1 51870U 22022U   25144.55378206  .00000173  00000+0  28931-4 0  9998
2 51870  53.2164 227.1005 0001168  79.0695 281.0429 15.08835716179516
STARLINK-3567           
1 51871U 22022V   25144.60897711  .00000651  00000+0  58971-4 0  9990
2 51871  53.2172 226.8546 0001181  91.6821 268.4306 15.08838920179588
STARLINK-3554           
1 51872U 22022W   25144.48385950  .00001071  00000+0  85376-4 0  9990
2 51872  53.2173 227.4170 0001111  85.3122 274.7997 15.08839670179452
STARLINK-3582           
1 51873U 22022X   25144.53265685  .00000505  00000+0  49850-4 0  9997
2 51873  53.2194 227.2071 0001399  96.5303 263.5848 15.08833922179463
STARLINK-3574           
1 51874U 22022Y   25144.60529537  .00000651  00000+0  58990-4 0  9992
2 51874  53.2172 226.8692 0001140  96.9673 263.1448 15.08837851179469
STARLINK-3585           
1 51875U 22022Z   25144.45072191  .00001580  00000+0  11731-3 0  9998
2 51875  53.2164 227.4774 0001143  91.4985 268.6138 15.08838048179452
STARLINK-3583           
1 51876U 22022AA  25144.66785764 -.00000864  00000+0 -36199-4 0  9991
2 51876  53.2173 226.5887 0001235  88.1743 271.9391 15.08838344179485
STARLINK-3556           
1 51877U 22022AB  25144.58413763  .00000370  00000+0  41362-4 0  9998
2 51877  53.2175 216.9636 0001313  85.5666 274.5476 15.08834663179602
STARLINK-3575           
1 51878U 22022AC  25144.52801969  .00000508  00000+0  50015-4 0  9990
2 51878  53.2188 227.2182 0001446 104.1802 255.9350 15.08833110179469
STARLINK-3572           
1 51879U 22022AD  25144.44429809  .00001757  00000+0  12845-3 0  9996
2 51879  53.2167 217.5918 0001124  86.8175 273.2946 15.08840379179580
STARLINK-3566           
1 51880U 22022AE  25144.59789932  .00000995  00000+0  80613-4 0  9992
2 51880  53.2170 226.6219 0001227  92.9659 267.1474 15.08839695179475
STARLINK-3504           
1 51881U 22022AF  25144.43694001  .00000151  00000+0  27571-4 0  9996
2 51881  53.2166 217.6236 0001209  91.2537 268.8593 15.08833387179637
