[
  {
    "OBJECT_NAME": "STARLINK-3578",
    "OBJECT_ID": "2022-022S",
    "EPOCH": "2025-05-24T10:22:35.089248",
    "MEAN_MOTION": 15.08832251,
    "ECCENTRICITY": 9.47e-05,
    "INCLINATION": 53.2175,
    "RA_OF_ASC_NODE": 227.647,
    "ARG_OF_PERICENTER": 92.358,
    "MEAN_ANOMALY": 267.7521,
    "EPHEMERIS_TYPE": 0,
    "CLASSIFICATION_TYPE": "U",
    "NORAD_CAT_ID": 51868,
    "ELEMENT_SET_NO": 999,
    "REV_AT_EPOCH": 17944,
    "BSTAR": 0.00017268,
    "MEAN_MOTION_DOT": 2.461e-05,
    "MEAN_MOTION_DDOT": 0
  },
  {
    "OBJECT_NAME": "STARLINK-3588",
    "OBJECT_ID": "2022-022T",
    "EPOCH": "2025-05-24T14:42:13.412736",
    "MEAN_MOTION": 15.08838449,
    "ECCENTRICITY": 0.0001141,
    "INCLINATION": 53.2174,
    "RA_OF_ASC_NODE": 226.8343,
    "ARG_OF_PERICENTER": 86.4719,
    "MEAN_ANOMALY": 273.6403,
    "EPHEMERIS_TYPE": 0,
    "CLASSIFICATION_TYPE": "U",
    "NORAD_CAT_ID": 51869,
    "ELEMENT_SET_NO": 999,
    "REV_AT_EPOCH": 17947,
    "BSTAR": 5.5718e-05,
    "MEAN_MOTION_DOT": 5.99e-06,
    "MEAN_MOTION_DDOT": 0
  },
  {
    "OBJECT_NAME": "STARLINK-3591",
    "OBJECT_ID": "2022-022U",
    "EPOCH": "2025-05-24T13:17:26.769984",
    "MEAN_MOTION": 15.08835716,
    "ECCENTRICITY": 0.0001168,
    "INCLINATION": 53.2164,
    "RA_OF_ASC_NODE": 227.1005,
    "ARG_OF_PERICENTER": 79.0695,
    "MEAN_ANOMALY": 281.0429,
    "EPHEMERIS_TYPE": 0,
    "CLASSIFICATION_TYPE": "U",
    "NORAD_CAT_ID": 51870,
    "ELEMENT_SET_NO": 999,
    "REV_AT_EPOCH": 17951,
    "BSTAR": 2.8931e-05,
    "MEAN_MOTION_DOT": 1.73e-06,
    "MEAN_MOTION_DDOT": 0
  },
  {
    "OBJECT_NAME": "STARLINK-3567",
    "OBJECT_ID": "2022-022V",
    "EPOCH": "2025-05-24T14:36:55.622304",
    "MEAN_MOTION": 15.0883892,
    "ECCENTRICITY": 0.0001181,
    "INCLINATION": 53.2172,
    "RA_OF_ASC_NODE": 226.8546,
    "ARG_OF_PERICENTER": 91.6821,
    "MEAN_ANOMALY": 268.4306,
    "EPHEMERIS_TYPE": 0,
    "CLASSIFICATION_TYPE": "U",
    "NORAD_CAT_ID": 51871,
    "ELEMENT_SET_NO": 999,
    "REV_AT_EPOCH": 17958,
    "BSTAR": 5.8971e-05,
    "MEAN_MOTION_DOT": 6.51e-06,
    "MEAN_MOTION_DDOT": 0
  },
  {
    "OBJECT_NAME": "STARLINK-3554",
    "OBJECT_ID": "2022-022W",
    "EPOCH": "2025-05-24T11:36:45.460800",
    "MEAN_MOTION": 15.0883967,
    "ECCENTRICITY": 0.0001111,
    "INCLINATION": 53.2173,
    "RA_OF_ASC_NODE": 227.417,
    "ARG_OF_PERICENTER": 85.3122,
    "MEAN_ANOMALY": 274.7997,
    "EPHEMERIS_TYPE": 0,
    "CLASSIFICATION_TYPE": "U",
    "NORAD_CAT_ID": 51872,
    "ELEMENT_SET_NO": 999,
    "REV_AT_EPOCH": 17945,
    "BSTAR": 8.5376e-05,
    "MEAN_MOTION_DOT": 1.071e-05,
    "MEAN_MOTION_DDOT": 0
  },
  {
    "OBJECT_NAME": "STARLINK-3582",
    "OBJECT_ID": "2022-022X",
    "EPOCH": "2025-05-24T12:47:01.551840",
    "MEAN_MOTION": 15.08833922,
    "ECCENTRICITY": 0.0001399,
    "INCLINATION": 53.2194,
    "RA_OF_ASC_NODE": 227.2071,
    "ARG_OF_PERICENTER": 96.5303,
    "MEAN_ANOMALY": 263.5848,
    "EPHEMERIS_TYPE": 0,
    "CLASSIFICATION_TYPE": "U",
    "NORAD_CAT_ID": 51873,
    "ELEMENT_SET_NO": 999,
    "REV_AT_EPOCH": 17946,
    "BSTAR": 4.985e-05,
    "MEAN_MOTION_DOT": 5.05e-06,
    "MEAN_MOTION_DDOT": 0
  },
  {
    "OBJECT_NAME": "STARLINK-3574",
    "OBJECT_ID": "2022-022Y",
    "EPOCH": "2025-05-24T14:31:37.519968",
    "MEAN_MOTION": 15.08837851,
    "ECCENTRICITY": 0.000114,
    "INCLINATION": 53.2172,
    "RA_OF_ASC_NODE": 226.8692,
    "ARG_OF_PERICENTER": 96.9673,
    "MEAN_ANOMALY": 263.1448,
    "EPHEMERIS_TYPE": 0,
    "CLASSIFICATION_TYPE": "U",
    "NORAD_CAT_ID": 51874,
    "ELEMENT_SET_NO": 999,
    "REV_AT_EPOCH": 17946,
    "BSTAR": 5.899e-05,
    "MEAN_MOTION_DOT": 6.51e-06,
    "MEAN_MOTION_DDOT": 0
  },
  {
    "OBJECT_NAME": "STARLINK-3585",
    "OBJECT_ID": "2022-022Z",
    "EPOCH": "2025-05-24T10:49:02.373024",
    "MEAN_MOTION": 15.08838048,
    "ECCENTRICITY": 0.0001143,
    "INCLINATION": 53.2164,
    "RA_OF_ASC_NODE": 227.4774,
    "ARG_OF_PERICENTER": 91.4985,
    "MEAN_ANOMALY": 268.6138,
    "EPHEMERIS_TYPE": 0,
    "CLASSIFICATION_TYPE": "U",
    "NORAD_CAT_ID": 51875,
    "ELEMENT_SET_NO": 999,
    "REV_AT_EPOCH": 17945,
    "BSTAR": 0.00011731,
    "MEAN_MOTION_DOT": 1.58e-05,
    "MEAN_MOTION_DDOT": 0
  },
  {
    "OBJECT_NAME": "STARLINK-3583",
    "OBJECT_ID": "2022-022AA",
    "EPOCH": "2025-05-24T16:01:42.900096",
    "MEAN_MOTION": 15.08838344,
    "ECCENTRICITY": 0.0001235,
    "INCLINATION": 53.2173,
    "RA_OF_ASC_NODE": 226.5887,
    "ARG_OF_PERICENTER": 88.1743,
    "MEAN_ANOMALY": 271.9391,
    "EPHEMERIS_TYPE": 0,
    "CLASSIFICATION_TYPE": "U",
    "NORAD_CAT_ID": 51876,
    "ELEMENT_SET_NO": 999,
    "REV_AT_EPOCH": 17948,
    "BSTAR": -3.6199e-05,
    "MEAN_MOTION_DOT": -8.64e-06,
    "MEAN_MOTION_DDOT": 0
  },
  {
    "OBJECT_NAME": "STARLINK-3556",
    "OBJECT_ID": "2022-022AB",
    "EPOCH": "2025-05-24T14:01:09.491232",
    "MEAN_MOTION": 15.08834663,
    "ECCENTRICITY": 0.0001313,
    "INCLINATION": 53.2175,
    "RA_OF_ASC_NODE": 216.9636,
    "ARG_OF_PERICENTER": 85.5666,
    "MEAN_ANOMALY": 274.5476,
    "EPHEMERIS_TYPE": 0,
    "CLASSIFICATION_TYPE": "U",
    "NORAD_CAT_ID": 51877,
    "ELEMENT_SET_NO": 999,
    "REV_AT_EPOCH": 17960,
    "BSTAR": 4.1362e-05,
    "MEAN_MOTION_DOT": 3.7e-06,
    "MEAN_MOTION_DDOT": 0
  },
  {
    "OBJECT_NAME": "STARLINK-3575",
    "OBJECT_ID": "2022-022AC",
    "EPOCH": "2025-05-24T12:40:20.901216",
    "MEAN_MOTION": 15.0883311,
    "ECCENTRICITY": 0.0001446,
    "INCLINATION": 53.2188,
    "RA_OF_ASC_NODE": 227.2182,
    "ARG_OF_PERICENTER": 104.1802,
    "MEAN_ANOMALY": 255.935,
    "EPHEMERIS_TYPE": 0,
    "CLASSIFICATION_TYPE": "U",
    "NORAD_CAT_ID": 51878,
    "ELEMENT_SET_NO": 999,
    "REV_AT_EPOCH": 17946,
    "BSTAR": 5.0015e-05,
    "MEAN_MOTION_DOT": 5.08e-06,
    "MEAN_MOTION_DDOT": 0
  },
  {
    "OBJECT_NAME": "STARLINK-3572",
    "OBJECT_ID": "2022-022AD",
    "EPOCH": "2025-05-24T10:39:47.354976",
    "MEAN_MOTION": 15.08840379,
    "ECCENTRICITY": 0.0001124,
    "INCLINATION": 53.2167,
    "RA_OF_ASC_NODE": 217.5918,
    "ARG_OF_PERICENTER": 86.8175,
    "MEAN_ANOMALY": 273.2946,
    "EPHEMERIS_TYPE": 0,
    "CLASSIFICATION_TYPE": "U",
    "NORAD_CAT_ID": 51879,
    "ELEMENT_SET_NO": 999,
    "REV_AT_EPOCH": 17958,
    "BSTAR": 0.00012845,
    "MEAN_MOTION_DOT": 1.757e-05,
    "MEAN_MOTION_DDOT": 0
  },
  {
    "OBJECT_NAME": "STARLINK-3566",
    "OBJECT_ID": "2022-022AE",
    "EPOCH": "2025-05-24T14:20:58.501248",
    "MEAN_MOTION": 15.08839695,
    "ECCENTRICITY": 0.0001227,
    "INCLINATION": 53.217,
    "RA_OF_ASC_NODE": 226.6219,
    "ARG_OF_PERICENTER": 92.9659,
    "MEAN_ANOMALY": 267.1474,
    "EPHEMERIS_TYPE": 0,
    "CLASSIFICATION_TYPE": "U",
    "NORAD_CAT_ID": 51880,
    "ELEMENT_SET_NO": 999,
    "REV_AT_EPOCH": 17947,
    "BSTAR": 8.0613e-05,
    "MEAN_MOTION_DOT": 9.95e-06,
    "MEAN_MOTION_DDOT": 0
  },
  {
    "OBJECT_NAME": "STARLINK-3504",
    "OBJECT_ID": "2022-022AF",
    "EPOCH": "2025-05-24T10:29:11.616864",
    "MEAN_MOTION": 15.08833387,
    "ECCENTRICITY": 0.0001209,
    "INCLINATION": 53.2166,
    "RA_OF_ASC_NODE": 217.6236,
    "ARG_OF_PERICENTER": 91.2537,
    "MEAN_ANOMALY": 268.8593,
    "EPHEMERIS_TYPE": 0,
    "CLASSIFICATION_TYPE": "U",
    "NORAD_CAT_ID": 51881,
    "ELEMENT_SET_NO": 999,
    "REV_AT_EPOCH": 17963,
    "BSTAR": 2.7571e-05,
    "MEAN_MOTION_DOT": 1.51e-06,
    "MEAN_MOTION_DDOT": 0
  }
]